start=new Date('2021-08-31T00:00:00.000Z').valueOf();
sats=[{"INCLINATION":"53.0541","SEMIMAJOR_AXIS":"6925.381","PERIAPSIS":"546.588","RA_OF_ASC_NODE":"303.6353","DECAY_DATE":null,"TIME_SYSTEM":"UTC","EPHEMERIS_TYPE":"0","MEAN_MOTION_DDOT":"0.0000000000000","RCS_SIZE":"LARGE","GP_ID":"183729624","REV_AT_EPOCH":"7634","MEAN_ANOMALY":"272.0715","MEAN_MOTION_DOT":"-0.00001516","APOAPSIS":"547.903","COUNTRY_CODE":"US","TLE_LINE2":"2 45562  53.0541 303.6353 0000949  88.0382 272.0715 15.06389518 76346","TLE_LINE1":"1 45562U 20025AH  21242.49187960 -.00001516  00000-0 -82965-4 0  9995","SITE":"AFETR","CENTER_NAME":"EARTH","EPOCH":"2021-08-30T11:48:18.397440","REF_FRAME":"TEME","OBJECT_TYPE":"PAYLOAD","CLASSIFICATION_TYPE":"U","OBJECT_ID":"2020-025AH","BSTAR":"-0.00008296500000","FILE":"3105635","MEAN_ELEMENT_THEORY":"SGP4","LAUNCH_DATE":"2020-04-22","ELEMENT_SET_NO":"999","ECCENTRICITY":"0.00009490","NORAD_CAT_ID":"45562","PERIOD":"95.593","ARG_OF_PERICENTER":"88.0382","MEAN_MOTION":"15.06389518","OBJECT_NAME":"STARLINK-1354"},{"RA_OF_ASC_NODE":"303.5645","PERIAPSIS":"546.633","DECAY_DATE":null,"INCLINATION":"53.0552","SEMIMAJOR_AXIS":"6925.364","EPHEMERIS_TYPE":"0","RCS_SIZE":"LARGE","MEAN_MOTION_DDOT":"0.0000000000000","TIME_SYSTEM":"UTC","MEAN_ANOMALY":"267.0948","MEAN_MOTION_DOT":"0.00000198","APOAPSIS":"547.824","GP_ID":"183729874","REV_AT_EPOCH":"7634","TLE_LINE2":"2 45563  53.0552 303.5645 0000860  93.0139 267.0948 15.06395083 76346","COUNTRY_CODE":"US","REF_FRAME":"TEME","OBJECT_TYPE":"PAYLOAD","CLASSIFICATION_TYPE":"U","CENTER_NAME":"EARTH","TLE_LINE1":"1 45563U 20025AJ  21242.50662032  .00000198  00000-0  32163-4 0  9994","SITE":"AFETR","EPOCH":"2021-08-30T12:09:31.995648","OBJECT_ID":"2020-025AJ","BSTAR":"0.00003216300000","NORAD_CAT_ID":"45563","OBJECT_NAME":"STARLINK-1355","PERIOD":"95.592","ARG_OF_PERICENTER":"93.0139","MEAN_MOTION":"15.06395083","ELEMENT_SET_NO":"999","FILE":"3105635","LAUNCH_DATE":"2020-04-22","MEAN_ELEMENT_THEORY":"SGP4","ECCENTRICITY":"0.00008600"},{"BSTAR":"0.00014045000000","FILE":"3105762","LAUNCH_DATE":"2020-04-22","MEAN_ELEMENT_THEORY":"SGP4","ELEMENT_SET_NO":"999","ECCENTRICITY":"0.00005540","NORAD_CAT_ID":"45564","PERIOD":"95.592","ARG_OF_PERICENTER":"95.6232","MEAN_MOTION":"15.06406484","OBJECT_NAME":"STARLINK-1356","SITE":"AFETR","TLE_LINE1":"1 45564U 20025AK  21242.63561259  .00001812  00000-0  14045-3 0  9990","CENTER_NAME":"EARTH","EPOCH":"2021-08-30T15:15:16.927776","OBJECT_TYPE":"PAYLOAD","CLASSIFICATION_TYPE":"U","REF_FRAME":"TEME","OBJECT_ID":"2020-025AK","GP_ID":"183735839","REV_AT_EPOCH":"7576","MEAN_ANOMALY":"264.4820","MEAN_MOTION_DOT":"0.00001812","APOAPSIS":"547.577","COUNTRY_CODE":"US","TLE_LINE2":"2 45564  53.0528 302.9885 0000554  95.6232 264.4820 15.06406484 75764","INCLINATION":"53.0528","SEMIMAJOR_AXIS":"6925.329","PERIAPSIS":"546.810","RA_OF_ASC_NODE":"302.9885","DECAY_DATE":null,"TIME_SYSTEM":"UTC","EPHEMERIS_TYPE":"0","MEAN_MOTION_DDOT":"0.0000000000000","RCS_SIZE":"LARGE"},{"CENTER_NAME":"EARTH","TLE_LINE1":"1 45565U 20025AL  21242.49555408  .00000908  00000-0  79854-4 0  9999","SITE":"AFETR","EPOCH":"2021-08-30T11:53:35.872512","CLASSIFICATION_TYPE":"U","OBJECT_TYPE":"PAYLOAD","REF_FRAME":"TEME","OBJECT_ID":"2020-025AL","BSTAR":"0.00007985400000","ELEMENT_SET_NO":"999","MEAN_ELEMENT_THEORY":"SGP4","FILE":"3105635","LAUNCH_DATE":"2020-04-22","ECCENTRICITY":"0.00007510","NORAD_CAT_ID":"45565","OBJECT_NAME":"STARLINK-1357","ARG_OF_PERICENTER":"91.4121","PERIOD":"95.592","MEAN_MOTION":"15.06400768","INCLINATION":"53.0537","SEMIMAJOR_AXIS":"6925.346","RA_OF_ASC_NODE":"303.6168","PERIAPSIS":"546.691","DECAY_DATE":null,"TIME_SYSTEM":"UTC","EPHEMERIS_TYPE":"0","RCS_SIZE":"LARGE","MEAN_MOTION_DDOT":"0.0000000000000","GP_ID":"183730872","REV_AT_EPOCH":"7634","MEAN_ANOMALY":"268.6954","MEAN_MOTION_DOT":"0.00000908","APOAPSIS":"547.731","COUNTRY_CODE":"US","TLE_LINE2":"2 45565  53.0537 303.6168 0000751  91.4121 268.6954 15.06400768 76345"},{"OBJECT_ID":"2020-025AM","EPOCH":"2021-08-30T10:39:18.127584","TLE_LINE1":"1 45566U 20025AM  21242.44395981 -.00000140  00000-0  94766-5 0  9992","SITE":"AFETR","CENTER_NAME":"EARTH","OBJECT_TYPE":"PAYLOAD","REF_FRAME":"TEME","CLASSIFICATION_TYPE":"U","ECCENTRICITY":"0.00008440","FILE":"3105635","MEAN_ELEMENT_THEORY":"SGP4","LAUNCH_DATE":"2020-04-22","ELEMENT_SET_NO":"999","MEAN_MOTION":"15.06398441","PERIOD":"95.592","ARG_OF_PERICENTER":"105.6654","OBJECT_NAME":"STARLINK-1358","NORAD_CAT_ID":"45566","BSTAR":"0.00000947660000","TIME_SYSTEM":"UTC","MEAN_MOTION_DDOT":"0.0000000000000","RCS_SIZE":"LARGE","EPHEMERIS_TYPE":"0","SEMIMAJOR_AXIS":"6925.353","INCLINATION":"53.0567","DECAY_DATE":null,"PERIAPSIS":"546.634","RA_OF_ASC_NODE":"303.8404","COUNTRY_CODE":"US","TLE_LINE2":"2 45566  53.0567 303.8404 0000844 105.6654 254.4428 15.06398441 76338","REV_AT_EPOCH":"7633","GP_ID":"183729125","MEAN_MOTION_DOT":"-0.00000140","APOAPSIS":"547.803","MEAN_ANOMALY":"254.4428"},{"ECCENTRICITY":"0.00007680","LAUNCH_DATE":"2020-04-22","FILE":"3105635","MEAN_ELEMENT_THEORY":"SGP4","ELEMENT_SET_NO":"999","MEAN_MOTION":"15.06392938","PERIOD":"95.593","ARG_OF_PERICENTER":"95.3042","OBJECT_NAME":"STARLINK-1361","NORAD_CAT_ID":"45567","BSTAR":"-0.00009331500000","OBJECT_ID":"2020-025AN","EPOCH":"2021-08-30T12:30:45.745056","SITE":"AFETR","TLE_LINE1":"1 45567U 20025AN  21242.52136279 -.00001670  00000-0 -93315-4 0  9993","CENTER_NAME":"EARTH","CLASSIFICATION_TYPE":"U","OBJECT_TYPE":"PAYLOAD","REF_FRAME":"TEME","COUNTRY_CODE":"US","TLE_LINE2":"2 45567  53.0540 303.5007 0000768  95.3042 264.8035 15.06392938 76353","REV_AT_EPOCH":"7635","GP_ID":"183729375","APOAPSIS":"547.767","MEAN_MOTION_DOT":"-0.00001670","MEAN_ANOMALY":"264.8035","TIME_SYSTEM":"UTC","MEAN_MOTION_DDOT":"0.0000000000000","RCS_SIZE":"LARGE","EPHEMERIS_TYPE":"0","SEMIMAJOR_AXIS":"6925.370","INCLINATION":"53.0540","DECAY_DATE":null,"PERIAPSIS":"546.703","RA_OF_ASC_NODE":"303.5007"},{"OBJECT_ID":"2020-025AP","EPOCH":"2021-08-30T10:43:14.673504","TLE_LINE1":"1 45568U 20025AP  21242.44669761 -.00001427  00000-0 -76946-4 0  9993","SITE":"AFETR","CENTER_NAME":"EARTH","OBJECT_TYPE":"PAYLOAD","CLASSIFICATION_TYPE":"U","REF_FRAME":"TEME","ECCENTRICITY":"0.00009210","FILE":"3105635","LAUNCH_DATE":"2020-04-22","MEAN_ELEMENT_THEORY":"SGP4","ELEMENT_SET_NO":"999","PERIOD":"95.592","MEAN_MOTION":"15.06395114","ARG_OF_PERICENTER":"94.2206","OBJECT_NAME":"STARLINK-1363","NORAD_CAT_ID":"45568","BSTAR":"-0.00007694600000","TIME_SYSTEM":"UTC","MEAN_MOTION_DDOT":"0.0000000000000","RCS_SIZE":"LARGE","EPHEMERIS_TYPE":"0","SEMIMAJOR_AXIS":"6925.364","INCLINATION":"53.0547","DECAY_DATE":null,"PERIAPSIS":"546.591","RA_OF_ASC_NODE":"303.8369","COUNTRY_CODE":"US","TLE_LINE2":"2 45568  53.0547 303.8369 0000921  94.2206 265.8888 15.06395114 76330","REV_AT_EPOCH":"7633","GP_ID":"183730626","MEAN_MOTION_DOT":"-0.00001427","APOAPSIS":"547.866","MEAN_ANOMALY":"265.8888"},{"TLE_LINE2":"2 45569  53.0545 303.4824 0001002 105.2902 254.8198 15.06390193 76343","COUNTRY_CODE":"US","MEAN_ANOMALY":"254.8198","MEAN_MOTION_DOT":"-0.00001913","APOAPSIS":"547.938","GP_ID":"183730373","REV_AT_EPOCH":"7634","EPHEMERIS_TYPE":"0","MEAN_MOTION_DDOT":"0.0000000000000","RCS_SIZE":"LARGE","TIME_SYSTEM":"UTC","PERIAPSIS":"546.550","RA_OF_ASC_NODE":"303.4824","DECAY_DATE":null,"INCLINATION":"53.0545","SEMIMAJOR_AXIS":"6925.379","NORAD_CAT_ID":"45569","PERIOD":"95.593","ARG_OF_PERICENTER":"105.2902","MEAN_MOTION":"15.06390193","OBJECT_NAME":"STARLINK-1366","FILE":"3105635","MEAN_ELEMENT_THEORY":"SGP4","LAUNCH_DATE":"2020-04-22","ELEMENT_SET_NO":"999","ECCENTRICITY":"0.00010020","BSTAR":"-0.00010960000000","OBJECT_ID":"2020-025AQ","CLASSIFICATION_TYPE":"U","OBJECT_TYPE":"PAYLOAD","REF_FRAME":"TEME","SITE":"AFETR","TLE_LINE1":"1 45569U 20025AQ  21242.52505325 -.00001913  00000-0 -10960-3 0  9991","CENTER_NAME":"EARTH","EPOCH":"2021-08-30T12:36:04.600800"},{"PERIOD":"95.593","ARG_OF_PERICENTER":"98.6482","MEAN_MOTION":"15.06385871","OBJECT_NAME":"STARLINK-1376","NORAD_CAT_ID":"45570","ECCENTRICITY":"0.00011150","FILE":"3105635","MEAN_ELEMENT_THEORY":"SGP4","LAUNCH_DATE":"2020-04-22","ELEMENT_SET_NO":"999","BSTAR":"-0.00010046000000","OBJECT_ID":"2020-025AR","OBJECT_TYPE":"PAYLOAD","REF_FRAME":"TEME","CLASSIFICATION_TYPE":"U","EPOCH":"2021-08-30T10:49:55.466688","SITE":"AFETR","TLE_LINE1":"1 45570U 20025AR  21242.45133642 -.00001777  00000-0 -10046-3 0  9997","CENTER_NAME":"EARTH","TLE_LINE2":"2 45570  53.0542 303.8158 0001115  98.6482 261.4633 15.06385871 76333","COUNTRY_CODE":"US","APOAPSIS":"548.029","MEAN_MOTION_DOT":"-0.00001777","MEAN_ANOMALY":"261.4633","REV_AT_EPOCH":"7633","GP_ID":"183729625","MEAN_MOTION_DDOT":"0.0000000000000","RCS_SIZE":"LARGE","EPHEMERIS_TYPE":"0","TIME_SYSTEM":"UTC","DECAY_DATE":null,"PERIAPSIS":"546.485","RA_OF_ASC_NODE":"303.8158","SEMIMAJOR_AXIS":"6925.392","INCLINATION":"53.0542"},{"OBJECT_ID":"2020-025AS","TLE_LINE1":"1 45571U 20025AS  21242.46699525 -.00003240  00000-0 -19879-3 0  9996","SITE":"AFETR","CENTER_NAME":"EARTH","EPOCH":"2021-08-30T11:12:28.389600","CLASSIFICATION_TYPE":"U","OBJECT_TYPE":"PAYLOAD","REF_FRAME":"TEME","LAUNCH_DATE":"2020-04-22","FILE":"3105635","MEAN_ELEMENT_THEORY":"SGP4","ELEMENT_SET_NO":"999","ECCENTRICITY":"0.00007940","NORAD_CAT_ID":"45571","MEAN_MOTION":"15.06384715","PERIOD":"95.593","ARG_OF_PERICENTER":"111.7866","OBJECT_NAME":"STARLINK-1261","BSTAR":"-0.00019879000000","TIME_SYSTEM":"UTC","EPHEMERIS_TYPE":"0","MEAN_MOTION_DDOT":"0.0000000000000","RCS_SIZE":"LARGE","INCLINATION":"53.0539","SEMIMAJOR_AXIS":"6925.395","PERIAPSIS":"546.711","RA_OF_ASC_NODE":"293.7471","DECAY_DATE":null,"COUNTRY_CODE":"US","TLE_LINE2":"2 45571  53.0539 293.7471 0000794 111.7866 248.3208 15.06384715 76495","GP_ID":"183729875","REV_AT_EPOCH":"7649","MEAN_ANOMALY":"248.3208","APOAPSIS":"547.810","MEAN_MOTION_DOT":"-0.00003240"}];
